ISS (ZARYA)             
1 25544U 98067A   26082.84092848  .00015301  00000+0  29016-3 0  9991
2 25544  51.6344   2.4037 0006231 225.1303 134.9180 15.48504160558524
ISS (UNITY)             
1 25575U 98069F   26082.84092848  .00015301  00000+0  29016-3 0  9997
2 25575  51.6344   2.4037 0006231 225.1303 134.9180 15.48504160557314
ISS (DESTINY)           
1 26700U 01006B   26082.84092848  .00015301  00000+0  29016-3 0  9993
2 26700  51.6344   2.4037 0006231 225.1303 134.9180 15.48504160557393
COSMO-SKYMED 1          
1 31598U 07023A   26082.97246647  .00002918  00000+0  26118-3 0  9991
2 31598  97.8880 274.1209 0001093  87.9139 272.2208 14.96639429 17041
COSMO-SKYMED 2          
1 32376U 07059A   26082.96274704  .00000502  00000+0  69612-4 0  9993
2 32376  97.8874 267.7927 0001271  86.8376 273.2983 14.82159950989379
COSMO-SKYMED 3          
1 33412U 08054A   26082.93545263  .00007195  00000+0  49172-3 0  9992
2 33412  97.8399 300.0703 0015467 190.5997 169.4906 15.06373703944104
SWISSCUBE               
1 35932U 09051B   26082.98401062  .00001236  00000+0  25460-3 0  9996
2 35932  98.4085 349.3798 0007869 112.7072 247.4962 14.62296671876707
COSMO-SKYMED 4          
1 37216U 10060A   26082.97542672  .00000358  00000+0  51491-4 0  9995
2 37216  97.8872 267.8056 0001497  80.9631 279.1752 14.82155896831941
BEIDOU-2 IGSO-5         
1 37948U 11073A   26082.86287198 -.00000120  00000+0  00000+0 0  9992
2 37948  47.8347 272.5964 0109241 220.6724  93.5638  1.00267330 52273
BEIDOU-2 G5             
1 38091U 12008A   26082.92145715  .00000053  00000+0  00000+0 0  9990
2 38091   3.3597  70.1793 0013602 257.0622 244.5781  1.00271625 51510
BEIDOU-3 M8             
1 43108U 18003B   26081.30915472 -.00000030  00000+0  00000+0 0  9998
2 43108  54.3976 305.3279 0002692 294.6049  65.4100  1.86231036 55741
BEIDOU-3 M4             
1 43207U 18018A   26082.82533834  .00000000  00000+0  00000+0 0  9996
2 43207  56.5782  65.9614 0007324 353.8516   6.1328  1.86230782 55152
BEIDOU-3 M3             
1 43208U 18018B   26079.67005220  .00000005  00000+0  00000+0 0  9994
2 43208  56.5746  66.0695 0010098 322.3953  37.5330  1.86230975 55090
BEIDOU-3 M9             
1 43245U 18029A   26082.57216678 -.00000028  00000+0  00000+0 0  9997
2 43245  54.2711 302.9430 0000922  46.6737 313.3705  1.86227975 54308
BEIDOU-2 G8             
1 44231U 19027A   26082.93844389 -.00000253  00000+0  00000+0 0  9998
2 44231   1.4405  74.2650 0011425 274.4439 315.0432  1.00269782 25224
BEIDOU-3 M24            
1 44542U 19061A   26082.86656588  .00000013  00000+0  00000+0 0  9998
2 44542  54.3973 185.6054 0008254  16.7457 343.2983  1.86229032 44205
ISS (NAUKA)             
1 49044U 21066A   26082.84092848  .00015301  00000+0  29016-3 0  9997
2 49044  51.6344   2.4037 0006231 225.1303 134.9180 15.48504160557478
OUTPOST MISSION 2       
1 58334U 23174CG  26082.95072262  .00035042  00000+0  58729-3 0  9998
2 58334  97.3957 173.0636 0006631  81.0167 279.1836 15.51742842132584
BEIDOU-3 M27            
1 61187U 24168C   26082.34030157 -.00000031  00000+0  00000+0 0  9998
2 61187  54.5447 305.2090 0002856  27.7133 329.4520  1.86229934  7654
