[ {"OBJECT_NAME": "BEIDOU-3 M8 (C28)", "NORAD_CAT_ID": 43108, "MEAN_MOTION": 1.86231036, "ECCENTRICITY": 0.0002692, "INCLINATION": 54.3976, "RA_OF_ASC_NODE": 305.3279, "ARG_OF_PERICENTER": 294.6049, "MEAN_ANOMALY": 65.41, "BSTAR": 0.0, "EPOCH": "2026-03-22T07:25:10"}, {"OBJECT_NAME": "BEIDOU-2 IGSO-5 (C10)", "NORAD_CAT_ID": 37948, "MEAN_MOTION": 1.0026733, "ECCENTRICITY": 0.0109241, "INCLINATION": 47.8347, "RA_OF_ASC_NODE": 272.5964, "ARG_OF_PERICENTER": 220.6724, "MEAN_ANOMALY": 93.5638, "BSTAR": 0.0, "EPOCH": "2026-03-23T20:42:32"}, {"OBJECT_NAME": "BEIDOU-3 M27 (C49)", "NORAD_CAT_ID": 61187, "MEAN_MOTION": 1.86229934, "ECCENTRICITY": 0.0002856, "INCLINATION": 54.5447, "RA_OF_ASC_NODE": 305.209, "ARG_OF_PERICENTER": 27.7133, "MEAN_ANOMALY": 329.452, "BSTAR": 0.0, "EPOCH": "2026-03-23T08:10:02"}, {"OBJECT_NAME": "BEIDOU-3 M4 (C22)", "NORAD_CAT_ID": 43207, "MEAN_MOTION": 1.86230782, "ECCENTRICITY": 0.0007324, "INCLINATION": 56.5782, "RA_OF_ASC_NODE": 65.9614, "ARG_OF_PERICENTER": 353.8516, "MEAN_ANOMALY": 6.1328, "BSTAR": 0.0, "EPOCH": "2026-03-23T19:48:29"}, {"OBJECT_NAME": "BEIDOU-2 G5 (C05)", "NORAD_CAT_ID": 38091, "MEAN_MOTION": 1.00271625, "ECCENTRICITY": 0.0013602, "INCLINATION": 3.3597, "RA_OF_ASC_NODE": 70.1793, "ARG_OF_PERICENTER": 257.0622, "MEAN_ANOMALY": 244.5781, "BSTAR": 0.0, "EPOCH": "2026-03-23T22:06:53"}, {"OBJECT_NAME": "BEIDOU-2 G8 (C01)", "NORAD_CAT_ID": 44231, "MEAN_MOTION": 1.00269782, "ECCENTRICITY": 0.0011425, "INCLINATION": 1.4405, "RA_OF_ASC_NODE": 74.265, "ARG_OF_PERICENTER": 274.4439, "MEAN_ANOMALY": 315.0432, "BSTAR": 0.0, "EPOCH": "2026-03-23T22:31:21"}, {"OBJECT_NAME": "BEIDOU-3 M3 (C21)", "NORAD_CAT_ID": 43208, "MEAN_MOTION": 1.86230975, "ECCENTRICITY": 0.0010098, "INCLINATION": 56.5746, "RA_OF_ASC_NODE": 66.0695, "ARG_OF_PERICENTER": 322.3953, "MEAN_ANOMALY": 37.533, "BSTAR": 0.0, "EPOCH": "2026-03-20T16:04:52"}, {"OBJECT_NAME": "BEIDOU-3 M9 (C29)", "NORAD_CAT_ID": 43245, "MEAN_MOTION": 1.86227975, "ECCENTRICITY": 9.22e-05, "INCLINATION": 54.2711, "RA_OF_ASC_NODE": 302.943, "ARG_OF_PERICENTER": 46.6737, "MEAN_ANOMALY": 313.3705, "BSTAR": 0.0, "EPOCH": "2026-03-23T13:43:55"}, {"OBJECT_NAME": "BEIDOU-3 M24 (C46)", "NORAD_CAT_ID": 44542, "MEAN_MOTION": 1.86229032, "ECCENTRICITY": 0.0008254, "INCLINATION": 54.3973, "RA_OF_ASC_NODE": 185.6054, "ARG_OF_PERICENTER": 16.7457, "MEAN_ANOMALY": 343.2983, "BSTAR": 0.0, "EPOCH": "2026-03-23T20:47:51"}, {"OBJECT_NAME": "COSMO-SKYMED 1", "NORAD_CAT_ID": 31598, "MEAN_MOTION": 14.96639429, "ECCENTRICITY": 0.0001093, "INCLINATION": 97.888, "RA_OF_ASC_NODE": 274.1209, "ARG_OF_PERICENTER": 87.9139, "MEAN_ANOMALY": 272.2208, "BSTAR": 0.00026118, "EPOCH": "2026-03-23T23:20:21"}, {"OBJECT_NAME": "COSMO-SKYMED 2", "NORAD_CAT_ID": 32376, "MEAN_MOTION": 14.8215995, "ECCENTRICITY": 0.0001271, "INCLINATION": 97.8874, "RA_OF_ASC_NODE": 267.7927, "ARG_OF_PERICENTER": 86.8376, "MEAN_ANOMALY": 273.2983, "BSTAR": 6.9612e-05, "EPOCH": "2026-03-23T23:06:21"}, {"OBJECT_NAME": "COSMO-SKYMED 4", "NORAD_CAT_ID": 37216, "MEAN_MOTION": 14.82155896, "ECCENTRICITY": 0.0001497, "INCLINATION": 97.8872, "RA_OF_ASC_NODE": 267.8056, "ARG_OF_PERICENTER": 80.9631, "MEAN_ANOMALY": 279.1752, "BSTAR": 5.1491e-05, "EPOCH": "2026-03-23T23:24:36"}, {"OBJECT_NAME": "COSMO-SKYMED 3", "NORAD_CAT_ID": 33412, "MEAN_MOTION": 15.06373703, "ECCENTRICITY": 0.0015467, "INCLINATION": 97.8399, "RA_OF_ASC_NODE": 300.0703, "ARG_OF_PERICENTER": 190.5997, "MEAN_ANOMALY": 169.4906, "BSTAR": 0.00049172, "EPOCH": "2026-03-23T22:27:03"}, {"OBJECT_NAME": "ISS (ZARYA)", "NORAD_CAT_ID": 25544, "MEAN_MOTION": 15.4850416, "ECCENTRICITY": 0.0006231, "INCLINATION": 51.6344, "RA_OF_ASC_NODE": 2.4037, "ARG_OF_PERICENTER": 225.1303, "MEAN_ANOMALY": 134.918, "BSTAR": 0.00029016, "EPOCH": "2026-03-23T20:10:56"}, {"OBJECT_NAME": "ISS (NAUKA)", "NORAD_CAT_ID": 49044, "MEAN_MOTION": 15.4850416, "ECCENTRICITY": 0.0006231, "INCLINATION": 51.6344, "RA_OF_ASC_NODE": 2.4037, "ARG_OF_PERICENTER": 225.1303, "MEAN_ANOMALY": 134.918, "BSTAR": 0.00029016, "EPOCH": "2026-03-23T20:10:56"}, {"OBJECT_NAME": "SWISSCUBE", "NORAD_CAT_ID": 35932, "MEAN_MOTION": 14.62296671, "ECCENTRICITY": 0.0007869, "INCLINATION": 98.4085, "RA_OF_ASC_NODE": 349.3798, "ARG_OF_PERICENTER": 112.7072, "MEAN_ANOMALY": 247.4962, "BSTAR": 0.0002546, "EPOCH": "2026-03-23T23:36:58"}, {"OBJECT_NAME": "ISS (DESTINY)", "NORAD_CAT_ID": 26700, "MEAN_MOTION": 15.4850416, "ECCENTRICITY": 0.0006231, "INCLINATION": 51.6344, "RA_OF_ASC_NODE": 2.4037, "ARG_OF_PERICENTER": 225.1303, "MEAN_ANOMALY": 134.918, "BSTAR": 0.00029016, "EPOCH": "2026-03-23T20:10:56"}, {"OBJECT_NAME": "OUTPOST MISSION 2", "NORAD_CAT_ID": 58334, "MEAN_MOTION": 15.51742842, "ECCENTRICITY": 0.0006631, "INCLINATION": 97.3957, "RA_OF_ASC_NODE": 173.0636, "ARG_OF_PERICENTER": 81.0167, "MEAN_ANOMALY": 279.1836, "BSTAR": 0.00058729, "EPOCH": "2026-03-23T22:49:02"}, {"OBJECT_NAME": "ISS (UNITY)", "NORAD_CAT_ID": 25575, "MEAN_MOTION": 15.4850416, "ECCENTRICITY": 0.0006231, "INCLINATION": 51.6344, "RA_OF_ASC_NODE": 2.4037, "ARG_OF_PERICENTER": 225.1303, "MEAN_ANOMALY": 134.918, "BSTAR": 0.00029016, "EPOCH": "2026-03-23T20:10:56"}]